NORAD_CAT_ID,OBJECT_NAME,OBJECT_TYPE,EPOCH,MEAN_MOTION,ECCENTRICITY,INCLINATION,RA_OF_ASC_NODE,ARG_OF_PERICENTER,MEAN_ANOMALY,BSTAR,MEAN_MOTION_DOT,MEAN_MOTION_DDOT,TLE_LINE0,TLE_LINE1,TLE_LINE2,SEMIMAJOR_AXIS,PERIOD,APOGEE,PERIGEE,DECAYED
53916.0,STARLINK-5051,PAYLOAD,2023-01-20 16:23:46,15.48885879,9.74e-05,53.2162,32.2989,96.0475,264.0646,-0.0021688,-0.00117507,0.0,0 STARLINK-5051,1 53916U 22119AG  23020.68318115 -.00117507  00000-0 -21688-2 0  9999,2 53916  53.2162  32.2989 0000974  96.0475 264.0646 15.48885879 18942,6798.121,92.97,420.648,419.324,0.0
53916.0,STARLINK-5051,PAYLOAD,2023-01-21 06:00:00,15.46874636,0.0001193999999999,53.2145,29.5962,83.2851,198.9118,-0.019565,-0.00918844,0.0,0 STARLINK-5051,1 53916U 22119AG  23021.25001157 -.00918844  00000-0 -19565-1 0  9991,2 53916  53.2145  29.5962 0001194  83.2851 198.9118 15.46874636 19020,6804.012,93.091,426.69,425.065,0.0
53916.0,STARLINK-5051,PAYLOAD,2023-01-22 06:00:00,15.44919872,0.0001186,53.2141,24.8453,77.5844,12.9841,-0.020815,-0.0091406,0.0,0 STARLINK-5051,1 53916U 22119AG  23022.25001157 -.00914060  00000-0 -20815-1 0  9998,2 53916  53.2141  24.8453 0001186  77.5844  12.9841 15.44919872 19183,6809.751,93.209,432.423,430.8080000000001,0.0
53916.0,STARLINK-5051,PAYLOAD,2023-01-23 06:00:02,15.42961169,0.0001313,53.2144,20.1082,85.5534,166.4105,-0.021914,-0.00901248,0.0,0 STARLINK-5051,1 53916U 22119AG  23023.25002315 -.00901248  00000-0 -21914-1 0  9991,2 53916  53.2144  20.1082 0001313  85.5534 166.4105 15.42961169 19339,6815.512,93.327,438.272,436.482,0.0
53916.0,STARLINK-5051,PAYLOAD,2023-01-23 22:00:00,15.41656133,0.0001202,53.2149,16.9562,91.9172,263.6225,-0.022356,-0.00881472,0.0,0 STARLINK-5051,1 53916U 22119AG  23023.91667824 -.00881472  00000-0 -22356-1 0  9993,2 53916  53.2149  16.9562 0001202  91.9172 263.6225 15.41656133 19442,6819.358,93.406,442.043,440.403,0.0
53916.0,STARLINK-5051,PAYLOAD,2023-01-24 14:00:01,15.40404352,0.0001235,53.2153,13.8138,73.8559,22.1853,-0.026081,-0.0097723,0.0,0 STARLINK-5051,1 53916U 22119AG  23024.58334491 -.00977230  00000-0 -26081-1 0  9995,2 53916  53.2153  13.8138 0001235  73.8559  22.1853 15.40404352 19545,6823.052,93.482,445.76,444.074,0.0
53916.0,STARLINK-5051,PAYLOAD,2023-01-24 22:00:00,15.39719735,0.0001411,53.2156,12.2428,87.2573,57.8719,-0.024543,-0.0090517999999999,0.0,0 STARLINK-5051,1 53916U 22119AG  23024.91667824 -.00905180  00000-0 -24543-1 0  9997,2 53916  53.2156  12.2428 0001411  87.2573  57.8719 15.39719735 19597,6825.0740000000005,93.524,447.902,445.976,0.0
53916.0,STARLINK-5051,PAYLOAD,2023-01-25 14:00:01,15.384478,0.0001331999999999,53.2154,9.1095,80.1116,160.8344,-0.027707,-0.00973451,0.0,0 STARLINK-5051,1 53916U 22119AG  23025.58334491 -.00973451  00000-0 -27707-1 0  9993,2 53916  53.2154   9.1095 0001332  80.1116 160.8344 15.38447800 19697,6828.835999999999,93.601,451.61,449.791,0.0
53916.0,STARLINK-5051,PAYLOAD,2023-01-25 22:00:00,15.37774199,0.0001315,53.2156,7.5434,92.5872,195.0953,-0.0265079999999999,-0.00916024,0.0,0 STARLINK-5051,1 53916U 22119AG  23025.91667824 -.00916024  00000-0 -26508-1 0  9990,2 53916  53.2156   7.5434 0001315  92.5872 195.0953 15.37774199 19740,6830.83,93.642,453.593,451.796,0.0
53916.0,STARLINK-5051,PAYLOAD,2023-01-26 14:00:01,15.36484754,0.0001252999999999,53.215,4.4193,77.6629,301.1492,-0.0289959999999999,-0.00956982,0.0,0 STARLINK-5051,1 53916U 22119AG  23026.58334491 -.00956982  00000-0 -28996-1 0  9995,2 53916  53.2150   4.4193 0001253  77.6629 301.1492 15.36484754  1302,6834.651,93.72,457.372,455.66,0.0
53916.0,STARLINK-5051,PAYLOAD,2023-01-26 22:00:00,15.35822386,0.0001308,53.215,2.8581,86.3097,336.8895,-0.028392,-0.00920428,0.0,0 STARLINK-5051,1 53916U 22119AG  23026.91667824 -.00920428  00000-0 -28392-1 0  9997,2 53916  53.2150   2.8581 0001308  86.3097 336.8895 15.35822386 19905,6836.616,93.761,459.375,457.587,0.0
53916.0,STARLINK-5051,PAYLOAD,2023-01-27 14:00:01,15.34527448,0.0001409999999999,53.2144,359.7432,81.3123,68.3231,-0.0306,-0.00948936,0.0,0 STARLINK-5051,1 53916U 22119AG  23027.58334491 -.00948936  00000-0 -30600-1 0  9991,2 53916  53.2144 359.7432 0001410  81.3123  68.3231 15.34527448  1302,6840.460999999999,93.84,463.291,461.362,0.0
53916.0,STARLINK-5051,PAYLOAD,2023-01-27 22:00:00,15.33874967,0.0001453999999999,53.2145,358.1867,93.4004,98.2718,-0.030511,-0.00928497,0.0,0 STARLINK-5051,1 53916U 22119AG  23027.91667824 -.00928497  00000-0 -30511-1 0  9998,2 53916  53.2145 358.1867 0001454  93.4004  98.2718 15.33874967 20053,6842.401,93.88,465.261,463.271,0.0
53916.0,STARLINK-5051,PAYLOAD,2023-01-28 14:00:01,15.32571258,0.0001385,53.2139,355.0805,90.8188,182.5993,-0.032383,-0.00944044,0.0,0 STARLINK-5051,1 53916U 22119AG  23028.58334491 -.00944044  00000-0 -32383-1 0  9998,2 53916  53.2139 355.0805 0001385  90.8188 182.5993 15.32571258  1306,6846.281,93.96,469.094,467.198,0.0
53916.0,STARLINK-5051,PAYLOAD,2023-01-28 22:00:00,15.31920534,0.0001318,53.2141,353.5287,100.0022,213.106,-0.032414,-0.00927241,0.0,0 STARLINK-5051,1 53916U 22119AG  23028.91667824 -.00927241  00000-0 -32414-1 0  9999,2 53916  53.2141 353.5287 0001318 100.0022 213.1060 15.31920534  1303,6848.22,94.0,470.987,469.182,0.0
53916.0,STARLINK-5051,PAYLOAD,2023-01-29 06:00:00,15.31240313,0.0001298,53.214,351.981,85.843,266.1898,-0.031578,-0.00887637,0.0,0 STARLINK-5051,1 53916U 22119AG  23029.25001157 -.00887637  00000-0 -31578-1 0  9992,2 53916  53.2140 351.9810 0001298  85.8430 266.1898 15.31240313 20269,6850.248,94.041,473.002,471.223,0.0
53916.0,STARLINK-5051,PAYLOAD,2023-01-29 22:00:01,15.29969316,0.0001352,53.214,348.8843,94.2309,333.3354,-0.034652,-0.00943961,0.0,0 STARLINK-5051,1 53916U 22119AG  23029.91668981 -.00943961  00000-0 -34652-1 0  9998,2 53916  53.2140 348.8843 0001352  94.2309 333.3354 15.29969316  1306,6854.041,94.12,476.833,474.979,0.0
53916.0,STARLINK-5051,PAYLOAD,2023-01-30 14:00:01,15.28653362,0.0001421,53.214,345.7963,91.1817,48.6814,-0.035643,-0.00933045,0.0,0 STARLINK-5051,1 53916U 22119AG  23030.58334491 -.00933045  00000-0 -35643-1 0  9992,2 53916  53.2140 345.7963 0001421  91.1817  48.6814 15.28653362  1309,6857.974,94.201,480.813,478.864,0.0
53916.0,STARLINK-5051,PAYLOAD,2023-01-31 00:00:00,15.27850717,0.0001418,53.2142,343.8691,99.692,173.7969,-0.037235,-0.00949638,0.0,0 STARLINK-5051,1 53916U 22119AG  23031.00001157 -.00949638  00000-0 -37235-1 0  9994,2 53916  53.2142 343.8691 0001418  99.6920 173.7969 15.27850717  1305,6860.376,94.25,483.213,481.268,0.0
53916.0,STARLINK-5051,PAYLOAD,2023-01-31 06:00:00,15.27327647,0.0001518,53.2142,342.7151,88.5859,120.5026,-0.035033,-0.00873585,0.0,0 STARLINK-5051,1 53916U 22119AG  23031.25001157 -.00873585  00000-0 -35033-1 0  9992,2 53916  53.2142 342.7151 0001518  88.5859 120.5026 15.27327647 20567,6861.942,94.282,484.848,482.765,0.0
53916.0,STARLINK-5051,PAYLOAD,2023-01-31 14:00:01,15.2669876,0.0001425,53.2144,341.1747,97.7398,144.7837,-0.037706,-0.00929893,0.0,0 STARLINK-5051,1 53916U 22119AG  23031.58334491 -.00929893  00000-0 -37706-1 0  9991,2 53916  53.2144 341.1747 0001425  97.7398 144.7837 15.26698760  1305,6863.826,94.321,486.669,484.713,0.0
53916.0,STARLINK-5051,PAYLOAD,2023-01-31 22:00:00,15.26065346,0.000146,53.2146,339.6371,103.4912,171.6781,-0.039333,-0.00949928,0.0,0 STARLINK-5051,1 53916U 22119AG  23031.91667824 -.00949928  00000-0 -39333-1 0  9996,2 53916  53.2146 339.6371 0001460 103.4912 171.6781 15.26065346 20663,6865.725,94.36,488.593,486.588,0.0
53916.0,STARLINK-5051,PAYLOAD,2023-02-01 14:00:01,15.24739243,0.0001324,53.2148,336.5671,99.6001,238.545,-0.039523,-0.00919327,0.0,0 STARLINK-5051,1 53916U 22119AG  23032.58334491 -.00919327  00000-0 -39523-1 0  9992,2 53916  53.2148 336.5671 0001324  99.6001 238.5450 15.24739243  1306,6869.706,94.442,492.48,490.661,0.0
53916.0,STARLINK-5051,PAYLOAD,2023-02-01 22:00:00,15.24114169,0.0001348,53.2151,335.0342,101.3103,267.1311,-0.041924,-0.00954235,0.0,0 STARLINK-5051,1 53916U 22119AG  23032.91667824 -.00954235  00000-0 -41924-1 0  9993,2 53916  53.2151 335.0342 0001348 101.3103 267.1311 15.24114169 20825,6871.584,94.481,494.375,492.522,0.0
53916.0,STARLINK-5051,PAYLOAD,2023-02-02 14:00:01,15.2277796,0.00013,53.2154,331.9732,95.7553,330.9716,-0.041212,-0.00905031,0.0,0 STARLINK-5051,1 53916U 22119AG  23033.58334491 -.00905031  00000-0 -41212-1 0  9998,2 53916  53.2154 331.9732 0001300  95.7553 330.9716 15.22777960  1301,6875.603,94.564,498.362,496.574,0.0
53916.0,STARLINK-5051,PAYLOAD,2023-02-02 22:00:00,15.22160201,0.0001392,53.2156,330.4451,95.9671,358.7075,-0.044494,-0.00955303,0.0,0 STARLINK-5051,1 53916U 22119AG  23033.91667824 -.00955303  00000-0 -44494-1 0  9996,2 53916  53.2156 330.4451 0001392  95.9671 358.7075 15.22160201 20973,6877.463,94.602,500.285,498.371,0.0
53916.0,STARLINK-5051,PAYLOAD,2023-02-03 14:00:01,15.20820548,0.0001415,53.2159,327.3933,92.0874,56.1787,-0.043232,-0.00896614,0.0,0 STARLINK-5051,1 53916U 22119AG  23034.58334491 -.00896614  00000-0 -43232-1 0  9999,2 53916  53.2159 327.3933 0001415  92.0874  56.1787 15.20820548 21071,6881.501,94.686,504.34,502.393,0.0
53916.0,STARLINK-5051,PAYLOAD,2023-02-04 00:00:00,15.20024486,0.0001414,53.216,325.4901,86.8684,183.2872,-0.045939,-0.00928265,0.0,0 STARLINK-5051,1 53916U 22119AG  23035.00001157 -.00928265  00000-0 -45939-1 0  9991,2 53916  53.2160 325.4901 0001414  86.8684 183.2872 15.20024486  1304,6883.904,94.735,506.742,504.795,0.0
53916.0,STARLINK-5051,PAYLOAD,2023-02-04 06:00:00,15.1951657,0.0001534,53.2162,324.3497,77.2393,121.4698,-0.044136,-0.00882132,0.0,0 STARLINK-5051,1 53916U 22119AG  23035.25001157 -.00882132  00000-0 -44136-1 0  9998,2 53916  53.2162 324.3497 0001534  77.2393 121.4698 15.19516570 21173,6885.438,94.767,508.359,506.246,0.0
